{"type": "FeatureCollection", "features": [ {"type": "Feature", "properties": {"norad_id": 58654, "name": "BEIDOU-3 M28 (C50)", "group": "beidou", "lat": -55.59844908727382, "lon": -20.42019160696968, "alt_km": 21527.73223135905, "timestamp": "2025-12-09T14:52:26.427407+00:00", "meta": {"OBJECT_NAME": "BEIDOU-3 M28 (C50)", "OBJECT_ID": "2023-207A", "EPOCH": "2025-12-09T05:11:28.664736", "MEAN_MOTION": 1.86229641, "ECCENTRICITY": 0.00022913, "INCLINATION": 55.5815, "RA_OF_ASC_NODE": 68.7208, "ARG_OF_PERICENTER": 268.7348, "MEAN_ANOMALY": 91.2612, "EPHEMERIS_TYPE": 0, "CLASSIFICATION_TYPE": "U", "NORAD_CAT_ID": 58654, "ELEMENT_SET_NO": 999, "REV_AT_EPOCH": 1330, "BSTAR": 0, "MEAN_MOTION_DOT": -4.9e-07, "MEAN_MOTION_DDOT": 0}, "tle": {"line1": "1 58654U 23207A   25343.21630399 -.00000049  00000+0  00000+0 0  9994", "line2": "2 58654  55.5815  68.7208 0002291 268.7348  91.2612  1.86229641 13309"}}, "geometry": {"type": "Point", "coordinates": [-20.42019160696968, -55.59844908727382]}}, {"type": "Feature", "properties": {"norad_id": 58655, "name": "BEIDOU-3 M26 (C48)", "group": "beidou", "lat": 36.50188648736365, "lon": 99.14219107157018, "alt_km": 21532.63207961413, "timestamp": "2025-12-09T14:52:26.427418+00:00", "meta": {"OBJECT_NAME": "BEIDOU-3 M26 (C48)", "OBJECT_ID": "2023-207B", "EPOCH": "2025-12-08T11:26:54.595392", "MEAN_MOTION": 1.8623113, "ECCENTRICITY": 0.00036549, "INCLINATION": 55.583, "RA_OF_ASC_NODE": 68.7321, "ARG_OF_PERICENTER": 253.8899, "MEAN_ANOMALY": 106.0912, "EPHEMERIS_TYPE": 0, "CLASSIFICATION_TYPE": "U", "NORAD_CAT_ID": 58655, "ELEMENT_SET_NO": 999, "REV_AT_EPOCH": 1327, "BSTAR": 0, "MEAN_MOTION_DOT": -4.7e-07, "MEAN_MOTION_DDOT": 0}, "tle": {"line1": "1 58655U 23207B   25342.47702078 -.00000047  00000+0  00000+0 0  9994", "line2": "2 58655  55.5830  68.7321 0003654 253.8899 106.0912  1.86231130 13273"}}, "geometry": {"type": "Point", "coordinates": [99.14219107157018, 36.50188648736365]}}, {"type": "Feature", "properties": {"norad_id": 61186, "name": "BEIDOU-3 M25 (C47)", "group": "beidou", "lat": 13.756127256573132, "lon": 118.80636813353226, "alt_km": 21536.948103867748, "timestamp": "2025-12-09T14:52:26.427429+00:00", "meta": {"OBJECT_NAME": "BEIDOU-3 M25 (C47)", "OBJECT_ID": "2024-168B", "EPOCH": "2025-12-08T20:08:08.310912", "MEAN_MOTION": 1.8622988, "ECCENTRICITY": 0.00054406, "INCLINATION": 54.6453, "RA_OF_ASC_NODE": 308.8544, "ARG_OF_PERICENTER": 295.846, "MEAN_ANOMALY": 63.7287, "EPHEMERIS_TYPE": 0, "CLASSIFICATION_TYPE": "U", "NORAD_CAT_ID": 61186, "ELEMENT_SET_NO": 999, "REV_AT_EPOCH": 823, "BSTAR": 0, "MEAN_MOTION_DOT": -7.5e-07, "MEAN_MOTION_DDOT": 0}, "tle": {"line1": "1 61186U 24168B   25342.83898508 -.00000075  00000+0  00000+0 0  9999", "line2": "2 61186  54.6453 308.8544 0005440 295.8460  63.7287  1.86229880  8230"}}, "geometry": {"type": "Point", "coordinates": [118.80636813353226, 13.756127256573132]}}, {"type": "Feature", "properties": {"norad_id": 61187, "name": "BEIDOU-3 M27 (C49)", "group": "beidou", "lat": -46.070047007120245, "lon": -98.65001679967612, "alt_km": 21528.128599905354, "timestamp": "2025-12-09T14:52:26.427441+00:00", "meta": {"OBJECT_NAME": "BEIDOU-3 M27 (C49)", "OBJECT_ID": "2024-168C", "EPOCH": "2025-12-09T06:37:59.333088", "MEAN_MOTION": 1.86230065, "ECCENTRICITY": 0.00023324, "INCLINATION": 54.6404, "RA_OF_ASC_NODE": 308.8229, "ARG_OF_PERICENTER": 334.2122, "MEAN_ANOMALY": 93.5537, "EPHEMERIS_TYPE": 0, "CLASSIFICATION_TYPE": "U", "NORAD_CAT_ID": 61187, "ELEMENT_SET_NO": 999, "REV_AT_EPOCH": 572, "BSTAR": 0, "MEAN_MOTION_DOT": -7.6e-07, "MEAN_MOTION_DDOT": 0}, "tle": {"line1": "1 61187U 24168C   25343.27638117 -.00000076  00000+0  00000+0 0  9998", "line2": "2 61187  54.6404 308.8229 0002332 334.2122  93.5537  1.86230065  5724"}}, "geometry": {"type": "Point", "coordinates": [-98.65001679967612, -46.070047007120245]}}]}